CCSDS_OMM_VERS = 2.0
CREATION_DATE  = 
ORIGINATOR     = 

OBJECT_NAME    = KUIPER-00276
OBJECT_ID      = 2026-030AG
CENTER_NAME    = EARTH
REF_FRAME      = TEME
TIME_SYSTEM    = UTC
MEAN_ELEMENT_THEORY = SGP/SGP4

EPOCH          = 2026-02-25T03:49:08.852736
MEAN_MOTION    = 15.31580964
ECCENTRICITY   = .0018217
INCLINATION    = 51.8828
RA_OF_ASC_NODE = 279.8273
ARG_OF_PERICENTER = 28.8360
MEAN_ANOMALY   = 331.3628

EPHEMERIS_TYPE = 0
CLASSIFICATION_TYPE = U
NORAD_CAT_ID   = 67794
ELEMENT_SET_NO = 999
REV_AT_EPOCH   = 316
BSTAR          = .53631E-3
MEAN_MOTION_DOT = .1634E-3
MEAN_MOTION_DDOT = 0

CCSDS_OMM_VERS = 2.0
CREATION_DATE  = 
ORIGINATOR     = 

OBJECT_NAME    = KUIPER-00279
OBJECT_ID      = 2026-030AH
CENTER_NAME    = EARTH
REF_FRAME      = TEME
TIME_SYSTEM    = UTC
MEAN_ELEMENT_THEORY = SGP/SGP4

EPOCH          = 2026-02-25T03:19:22.105920
MEAN_MOTION    = 15.34789116
ECCENTRICITY   = .000609
INCLINATION    = 51.8809
RA_OF_ASC_NODE = 279.6913
ARG_OF_PERICENTER = 14.8354
MEAN_ANOMALY   = 345.2810

EPHEMERIS_TYPE = 0
CLASSIFICATION_TYPE = U
NORAD_CAT_ID   = 67795
ELEMENT_SET_NO = 999
REV_AT_EPOCH   = 316
BSTAR          = .511E-3
MEAN_MOTION_DOT = .17164E-3
MEAN_MOTION_DDOT = 0

CCSDS_OMM_VERS = 2.0
CREATION_DATE  = 
ORIGINATOR     = 

OBJECT_NAME    = CREW DRAGON 12
OBJECT_ID      = 2026-031A
CENTER_NAME    = EARTH
REF_FRAME      = TEME
TIME_SYSTEM    = UTC
MEAN_ELEMENT_THEORY = SGP/SGP4

EPOCH          = 2026-02-24T20:43:31.560672
MEAN_MOTION    = 15.48271528
ECCENTRICITY   = .00083861
INCLINATION    = 51.6318
RA_OF_ASC_NODE = 135.7592
ARG_OF_PERICENTER = 130.0533
MEAN_ANOMALY   = 230.1192

EPHEMERIS_TYPE = 0
CLASSIFICATION_TYPE = U
NORAD_CAT_ID   = 67796
ELEMENT_SET_NO = 999
REV_AT_EPOCH   = 55431
BSTAR          = .18823051E-3
MEAN_MOTION_DOT = .9683E-4
MEAN_MOTION_DDOT = 0

CCSDS_OMM_VERS = 2.0
CREATION_DATE  = 
ORIGINATOR     = 

OBJECT_NAME    = STARLINK-36800
OBJECT_ID      = 2026-032A
CENTER_NAME    = EARTH
REF_FRAME      = TEME
TIME_SYSTEM    = UTC
MEAN_ELEMENT_THEORY = SGP/SGP4

EPOCH          = 2026-02-23T16:00:03.000096
MEAN_MOTION    = 15.90904989
ECCENTRICITY   = .0001284
INCLINATION    = 97.2870
RA_OF_ASC_NODE = 240.3960
ARG_OF_PERICENTER = 80.0984
MEAN_ANOMALY   = 214.9156

EPHEMERIS_TYPE = 0
CLASSIFICATION_TYPE = U
NORAD_CAT_ID   = 67797
ELEMENT_SET_NO = 999
REV_AT_EPOCH   = 252
BSTAR          = -.60359E-2
MEAN_MOTION_DOT = -.1862359E-1
MEAN_MOTION_DDOT = .94321E-3

CCSDS_OMM_VERS = 2.0
CREATION_DATE  = 
ORIGINATOR     = 

OBJECT_NAME    = STARLINK-36798
OBJECT_ID      = 2026-032B
CENTER_NAME    = EARTH
REF_FRAME      = TEME
TIME_SYSTEM    = UTC
MEAN_ELEMENT_THEORY = SGP/SGP4

EPOCH          = 2026-02-23T16:00:03.000096
MEAN_MOTION    = 15.91097752
ECCENTRICITY   = .0001244
INCLINATION    = 97.2865
RA_OF_ASC_NODE = 240.3974
ARG_OF_PERICENTER = 75.9154
MEAN_ANOMALY   = 222.8269

EPHEMERIS_TYPE = 0
CLASSIFICATION_TYPE = U
NORAD_CAT_ID   = 67798
ELEMENT_SET_NO = 999
REV_AT_EPOCH   = 246
BSTAR          = -.59881E-2
MEAN_MOTION_DOT = -.1865731E-1
MEAN_MOTION_DDOT = .94824E-3

CCSDS_OMM_VERS = 2.0
CREATION_DATE  = 
ORIGINATOR     = 

OBJECT_NAME    = STARLINK-36804
OBJECT_ID      = 2026-032C
CENTER_NAME    = EARTH
REF_FRAME      = TEME
TIME_SYSTEM    = UTC
MEAN_ELEMENT_THEORY = SGP/SGP4

EPOCH          = 2026-02-23T16:00:03.000096
MEAN_MOTION    = 15.91296785
ECCENTRICITY   = .0001357
INCLINATION    = 97.2863
RA_OF_ASC_NODE = 240.3994
ARG_OF_PERICENTER = 75.3637
MEAN_ANOMALY   = 227.4376

EPHEMERIS_TYPE = 0
CLASSIFICATION_TYPE = U
NORAD_CAT_ID   = 67799
ELEMENT_SET_NO = 999
REV_AT_EPOCH   = 246
BSTAR          = -.58889E-2
MEAN_MOTION_DOT = -.1853662E-1
MEAN_MOTION_DDOT = .93869E-3

CCSDS_OMM_VERS = 2.0
CREATION_DATE  = 
ORIGINATOR     = 

OBJECT_NAME    = STARLINK-36354
OBJECT_ID      = 2026-032D
CENTER_NAME    = EARTH
REF_FRAME      = TEME
TIME_SYSTEM    = UTC
MEAN_ELEMENT_THEORY = SGP/SGP4

EPOCH          = 2026-02-23T16:00:03.000096
MEAN_MOTION    = 15.91455237
ECCENTRICITY   = .000123
INCLINATION    = 97.2866
RA_OF_ASC_NODE = 240.4012
ARG_OF_PERICENTER = 78.0847
MEAN_ANOMALY   = 227.8964

EPHEMERIS_TYPE = 0
CLASSIFICATION_TYPE = U
NORAD_CAT_ID   = 67800
ELEMENT_SET_NO = 999
REV_AT_EPOCH   = 252
BSTAR          = -.58406E-2
MEAN_MOTION_DOT = -.1853319E-1
MEAN_MOTION_DDOT = .93987E-3

CCSDS_OMM_VERS = 2.0
CREATION_DATE  = 
ORIGINATOR     = 

OBJECT_NAME    = STARLINK-36773
OBJECT_ID      = 2026-032E
CENTER_NAME    = EARTH
REF_FRAME      = TEME
TIME_SYSTEM    = UTC
MEAN_ELEMENT_THEORY = SGP/SGP4

EPOCH          = 2026-02-23T16:00:03.000096
MEAN_MOTION    = 15.91618581
ECCENTRICITY   = .0001305
INCLINATION    = 97.2859
RA_OF_ASC_NODE = 240.4020
ARG_OF_PERICENTER = 74.0978
MEAN_ANOMALY   = 235.2493

EPHEMERIS_TYPE = 0
CLASSIFICATION_TYPE = U
NORAD_CAT_ID   = 67801
ELEMENT_SET_NO = 999
REV_AT_EPOCH   = 246
BSTAR          = -.57675E-2
MEAN_MOTION_DOT = -.1845584E-1
MEAN_MOTION_DDOT = .9341E-3

CCSDS_OMM_VERS = 2.0
CREATION_DATE  = 
ORIGINATOR     = 

OBJECT_NAME    = STARLINK-36739
OBJECT_ID      = 2026-032F
CENTER_NAME    = EARTH
REF_FRAME      = TEME
TIME_SYSTEM    = UTC
MEAN_ELEMENT_THEORY = SGP/SGP4

EPOCH          = 2026-02-23T16:00:03.000096
MEAN_MOTION    = 15.91958078
ECCENTRICITY   = .0001263
INCLINATION    = 97.2856
RA_OF_ASC_NODE = 240.4047
ARG_OF_PERICENTER = 71.9201
MEAN_ANOMALY   = 244.1424

EPHEMERIS_TYPE = 0
CLASSIFICATION_TYPE = U
NORAD_CAT_ID   = 67802
ELEMENT_SET_NO = 999
REV_AT_EPOCH   = 252
BSTAR          = -.56745E-2
MEAN_MOTION_DOT = -.1847603E-1
MEAN_MOTION_DDOT = .93924E-3

CCSDS_OMM_VERS = 2.0
CREATION_DATE  = 
ORIGINATOR     = 

OBJECT_NAME    = STARLINK-36768
OBJECT_ID      = 2026-032G
CENTER_NAME    = EARTH
REF_FRAME      = TEME
TIME_SYSTEM    = UTC
MEAN_ELEMENT_THEORY = SGP/SGP4

EPOCH          = 2026-02-23T16:00:03.000096
MEAN_MOTION    = 15.91790036
ECCENTRICITY   = .0001205
INCLINATION    = 97.2857
RA_OF_ASC_NODE = 240.4033
ARG_OF_PERICENTER = 77.7149
MEAN_ANOMALY   = 235.0921

EPHEMERIS_TYPE = 0
CLASSIFICATION_TYPE = U
NORAD_CAT_ID   = 67803
ELEMENT_SET_NO = 999
REV_AT_EPOCH   = 252
BSTAR          = -.57068E-2
MEAN_MOTION_DOT = -.184225E-1
MEAN_MOTION_DDOT = .93257E-3

CCSDS_OMM_VERS = 2.0
CREATION_DATE  = 
ORIGINATOR     = 

OBJECT_NAME    = STARLINK-36792
OBJECT_ID      = 2026-032H
CENTER_NAME    = EARTH
REF_FRAME      = TEME
TIME_SYSTEM    = UTC
MEAN_ELEMENT_THEORY = SGP/SGP4

EPOCH          = 2026-02-23T16:00:03.000096
MEAN_MOTION    = 15.92110114
ECCENTRICITY   = .0001197
INCLINATION    = 97.2852
RA_OF_ASC_NODE = 240.4057
ARG_OF_PERICENTER = 75.9973
MEAN_ANOMALY   = 243.2666

EPHEMERIS_TYPE = 0
CLASSIFICATION_TYPE = U
NORAD_CAT_ID   = 67804
ELEMENT_SET_NO = 999
REV_AT_EPOCH   = 246
BSTAR          = -.55972E-2
MEAN_MOTION_DOT = -.1836849E-1
MEAN_MOTION_DDOT = .9305E-3

CCSDS_OMM_VERS = 2.0
CREATION_DATE  = 
ORIGINATOR     = 

OBJECT_NAME    = STARLINK-36782
OBJECT_ID      = 2026-032J
CENTER_NAME    = EARTH
REF_FRAME      = TEME
TIME_SYSTEM    = UTC
MEAN_ELEMENT_THEORY = SGP/SGP4

EPOCH          = 2026-02-23T16:00:03.000096
MEAN_MOTION    = 15.92255450
ECCENTRICITY   = .0001181
INCLINATION    = 97.2851
RA_OF_ASC_NODE = 240.4071
ARG_OF_PERICENTER = 76.5124
MEAN_ANOMALY   = 245.7370

EPHEMERIS_TYPE = 0
CLASSIFICATION_TYPE = U
NORAD_CAT_ID   = 67805
ELEMENT_SET_NO = 999
REV_AT_EPOCH   = 252
BSTAR          = -.55524E-2
MEAN_MOTION_DOT = -.1835825E-1
MEAN_MOTION_DDOT = .93091E-3

CCSDS_OMM_VERS = 2.0
CREATION_DATE  = 
ORIGINATOR     = 

OBJECT_NAME    = STARLINK-36389
OBJECT_ID      = 2026-032K
CENTER_NAME    = EARTH
REF_FRAME      = TEME
TIME_SYSTEM    = UTC
MEAN_ELEMENT_THEORY = SGP/SGP4

EPOCH          = 2026-02-23T16:00:03.000096
MEAN_MOTION    = 15.92465752
ECCENTRICITY   = .0001187
INCLINATION    = 97.2849
RA_OF_ASC_NODE = 240.4088
ARG_OF_PERICENTER = 73.5976
MEAN_ANOMALY   = 252.7363

EPHEMERIS_TYPE = 0
CLASSIFICATION_TYPE = U
NORAD_CAT_ID   = 67806
ELEMENT_SET_NO = 999
REV_AT_EPOCH   = 252
BSTAR          = -.54867E-2
MEAN_MOTION_DOT = -.1833878E-1
MEAN_MOTION_DDOT = .93107E-3

CCSDS_OMM_VERS = 2.0
CREATION_DATE  = 
ORIGINATOR     = 

OBJECT_NAME    = STARLINK-36382
OBJECT_ID      = 2026-032L
CENTER_NAME    = EARTH
REF_FRAME      = TEME
TIME_SYSTEM    = UTC
MEAN_ELEMENT_THEORY = SGP/SGP4

EPOCH          = 2026-02-23T16:00:03.000096
MEAN_MOTION    = 15.92631211
ECCENTRICITY   = .0001243
INCLINATION    = 97.2846
RA_OF_ASC_NODE = 240.4099
ARG_OF_PERICENTER = 72.7678
MEAN_ANOMALY   = 256.9443

EPHEMERIS_TYPE = 0
CLASSIFICATION_TYPE = U
NORAD_CAT_ID   = 67807
ELEMENT_SET_NO = 999
REV_AT_EPOCH   = 246
BSTAR          = -.54218E-2
MEAN_MOTION_DOT = -.182781E-1
MEAN_MOTION_DDOT = .92689E-3

CCSDS_OMM_VERS = 2.0
CREATION_DATE  = 
ORIGINATOR     = 

OBJECT_NAME    = STARLINK-36811
OBJECT_ID      = 2026-032M
CENTER_NAME    = EARTH
REF_FRAME      = TEME
TIME_SYSTEM    = UTC
MEAN_ELEMENT_THEORY = SGP/SGP4

EPOCH          = 2026-02-23T16:00:03.000096
MEAN_MOTION    = 15.92839669
ECCENTRICITY   = .0001184
INCLINATION    = 97.2845
RA_OF_ASC_NODE = 240.4123
ARG_OF_PERICENTER = 69.8777
MEAN_ANOMALY   = 263.8734

EPHEMERIS_TYPE = 0
CLASSIFICATION_TYPE = U
NORAD_CAT_ID   = 67808
ELEMENT_SET_NO = 999
REV_AT_EPOCH   = 252
BSTAR          = -.53568E-2
MEAN_MOTION_DOT = -.1825514E-1
MEAN_MOTION_DDOT = .9267E-3

